CIC_OEM_VERS = 2.0
CREATION_DATE = 2025-03-12T08:44:33.470092
ORIGINATOR = ISAE-SUPAERO


META_START
OBJECT_NAME = RED1
OBJECT_ID = RED1
CENTER_NAME = Earth
REF_FRAME = EME2000
TIME_SYSTEM = UTC
START_TIME = 2025-03-12T23:14:03.345
USEABLE_START_TIME = 2025-03-12T23:14:03.345
USEABLE_STOP_TIME = 2025-03-12T23:59:03.345
STOP_TIME = 2025-03-12T23:59:03.345
INTERPOLATION = lagrange
INTERPOLATION_DEGREE = 5
META_STOP


60746 83643.345 -33839.988 -4799.0911 -11305.95 1.1352607000000001 -1.2221464000000002 -2.8791965
60746 83733.345 -33736.644 -4908.917 -11564.684000000001 1.1612417000000002 -1.218414 -2.8704026
60746 83823.345 -33630.967000000004 -5018.4030999999995 -11822.617 1.1871421 -1.2145972999999999 -2.8614101
60746 83913.345 -33522.961 -5127.542 -12079.731 1.2129603 -1.2106965 -2.8522195999999997
60746 84003.345 -33412.636 -5236.326 -12336.01 1.2386946 -1.206712 -2.8428317
60746 84093.345 -33299.999 -5344.7476 -12591.435 1.264343 -1.202644 -2.833247
60746 84183.345 -33185.057 -5452.799400000001 -12845.989 1.289904 -1.1984927 -2.8234663
60746 84273.345 -33067.819 -5560.4738 -13099.653 1.3153757000000001 -1.1942585 -2.8134902000000004
60746 84363.345 -32948.292 -5667.763400000001 -13352.411 1.3407563 -1.1899417 -2.8033194
60746 84453.345 -32826.486 -5774.6608 -13604.245 1.3660441 -1.1855425 -2.7929545
60746 84543.345 -32702.407 -5881.1586 -13855.137 1.3912373 -1.1810613 -2.7823964
60746 84633.345 -32576.066 -5987.249400000001 -14105.071 1.4163342 -1.1764984 -2.7716458
60746 84723.345 -32447.47 -6092.9259 -14354.028 1.4413331 -1.1718541 -2.7607033000000003
60746 84813.345 -32316.629 -6198.1807 -14601.991 1.4662321999999999 -1.1671286 -2.7495698
60746 84903.345 -32183.551 -6303.0066 -14848.945 1.4910298 -1.1623224 -2.738246
60746 84993.345 -32048.246 -6407.3964000000005 -15094.87 1.5157242000000002 -1.1574358 -2.7267327
60746 85083.345 -31910.724000000002 -6511.3427 -15339.751 1.5403137 -1.1524691 -2.7150307
60746 85173.345 -31770.993000000002 -6614.838400000001 -15583.57 1.5647965 -1.1474227000000001 -2.7031408000000003
60746 85263.345 -31629.064000000002 -6717.8764 -15826.311 1.5891710000000001 -1.1422968 -2.6910638
60746 85353.345 -31484.946 -6820.4495 -16067.956 1.6134355 -1.1370919 -2.6788007
60746 85443.345 -31338.649 -6922.5506 -16308.489 1.6375884 -1.1318084 -2.6663521
60746 85533.345 -31190.183 -7024.1726 -16547.894 1.6616278 -1.1264465000000001 -2.653719
60746 85623.345 -31039.559 -7125.308599999999 -16786.153000000002 1.6855523000000001 -1.1210067 -2.6409023
60746 85713.345 -30886.787 -7225.9515 -17023.251 1.7093601 -1.1154893 -2.6279029
60746 85803.345 -30731.878 -7326.094400000001 -17259.170000000002 1.7330495000000001 -1.1098947000000001 -2.6147215999999998
60746 85893.345 -30574.842 -7425.7302 -17493.895 1.756619 -1.1042233000000001 -2.6013593
60746 85983.345 -30415.690000000002 -7524.8523 -17727.409 1.7800669 -1.0984755 -2.5878171
60746 86073.345 -30254.434 -7623.4536 -17959.697 1.8033915999999999 -1.0926518 -2.5740957
60746 86163.345 -30091.083000000002 -7721.5273 -18190.741 1.8265914 -1.0867524000000002 -2.5601963000000003
60746 86253.345 -29925.651 -7819.0667 -18420.527000000002 1.8496648 -1.0807778000000001 -2.5461196
60746 86343.345 -29758.148 -7916.0651 -18649.037 1.8726102000000002 -1.0747284 -2.5318668

